{"type": "FeatureCollection", "features": [ {"type": "Feature", "properties": {"norad_id": 66395, "name": "STARLINK-35681", "group": "last-30-days", "lat": 13.984345410958436, "lon": 117.82163720588525, "alt_km": 417.0033076083582, "timestamp": "2025-12-03T08:58:44.776433+00:00", "meta": {"OBJECT_NAME": "STARLINK-35681", "OBJECT_ID": "2025-257R", "EPOCH": "2025-12-03T03:38:13.552800", "MEAN_MOTION": 15.49328325, "ECCENTRICITY": 0.0001517, "INCLINATION": 53.1589, "RA_OF_ASC_NODE": 309.6475, "ARG_OF_PERICENTER": 102.6084, "MEAN_ANOMALY": 257.5095, "EPHEMERIS_TYPE": 0, "CLASSIFICATION_TYPE": "U", "NORAD_CAT_ID": 66395, "ELEMENT_SET_NO": 999, "REV_AT_EPOCH": 482, "BSTAR": 0.00092905, "MEAN_MOTION_DOT": 0.00051599, "MEAN_MOTION_DDOT": 0}, "tle": {"line1": "1 66395U 25257R   25337.15154575  .00051599  00000+0  92905-3 0  9999", "line2": "2 66395  53.1589 309.6475 0001517 102.6084 257.5095 15.49328325  4820"}}, "geometry": {"type": "Point", "coordinates": [117.82163720588525, 13.984345410958436]}}, {"type": "Feature", "properties": {"norad_id": 66396, "name": "STARLINK-35669", "group": "last-30-days", "lat": 12.456389017187826, "lon": 119.0451087003445, "alt_km": 417.27082596929904, "timestamp": "2025-12-03T08:58:44.776444+00:00", "meta": {"OBJECT_NAME": "STARLINK-35669", "OBJECT_ID": "2025-257S", "EPOCH": "2025-12-03T03:37:43.782816", "MEAN_MOTION": 15.49348555, "ECCENTRICITY": 0.0001476, "INCLINATION": 53.1587, "RA_OF_ASC_NODE": 309.6446, "ARG_OF_PERICENTER": 99.5284, "MEAN_ANOMALY": 260.5892, "EPHEMERIS_TYPE": 0, "CLASSIFICATION_TYPE": "U", "NORAD_CAT_ID": 66396, "ELEMENT_SET_NO": 999, "REV_AT_EPOCH": 489, "BSTAR": 0.00088926, "MEAN_MOTION_DOT": 0.00049392, "MEAN_MOTION_DDOT": 0}, "tle": {"line1": "1 66396U 25257S   25337.15120119  .00049392  00000+0  88926-3 0  9993", "line2": "2 66396  53.1587 309.6446 0001476  99.5284 260.5892 15.49348555  4890"}}, "geometry": {"type": "Point", "coordinates": [119.0451087003445, 12.456389017187826]}}, {"type": "Feature", "properties": {"norad_id": 66397, "name": "STARLINK-35510", "group": "last-30-days", "lat": 10.953541579713523, "lon": 120.23112467588842, "alt_km": 417.699199306875, "timestamp": "2025-12-03T08:58:44.776454+00:00", "meta": {"OBJECT_NAME": "STARLINK-35510", "OBJECT_ID": "2025-257T", "EPOCH": "2025-12-03T03:37:14.265984", "MEAN_MOTION": 15.49336637, "ECCENTRICITY": 0.0001238, "INCLINATION": 53.1586, "RA_OF_ASC_NODE": 309.6426, "ARG_OF_PERICENTER": 90.4961, "MEAN_ANOMALY": 269.619, "EPHEMERIS_TYPE": 0, "CLASSIFICATION_TYPE": "U", "NORAD_CAT_ID": 66397, "ELEMENT_SET_NO": 999, "REV_AT_EPOCH": 489, "BSTAR": 0.0016293, "MEAN_MOTION_DOT": 0.0009132, "MEAN_MOTION_DDOT": 0}, "tle": {"line1": "1 66397U 25257T   25337.15085956  .00091320  00000+0  16293-2 0  9998", "line2": "2 66397  53.1586 309.6426 0001238  90.4961 269.6190 15.49336637  4895"}}, "geometry": {"type": "Point", "coordinates": [120.23112467588842, 10.953541579713523]}}, {"type": "Feature", "properties": {"norad_id": 66398, "name": "STARLINK-35642", "group": "last-30-days", "lat": 9.438640975933719, "lon": 121.41005536279742, "alt_km": 417.8525162063215, "timestamp": "2025-12-03T08:58:44.776463+00:00", "meta": {"OBJECT_NAME": "STARLINK-35642", "OBJECT_ID": "2025-257U", "EPOCH": "2025-12-03T03:36:44.533152", "MEAN_MOTION": 15.49328167, "ECCENTRICITY": 0.000141, "INCLINATION": 53.1589, "RA_OF_ASC_NODE": 309.6396, "ARG_OF_PERICENTER": 99.6392, "MEAN_ANOMALY": 260.4777, "EPHEMERIS_TYPE": 0, "CLASSIFICATION_TYPE": "U", "NORAD_CAT_ID": 66398, "ELEMENT_SET_NO": 999, "REV_AT_EPOCH": 489, "BSTAR": 0.00094164, "MEAN_MOTION_DOT": 0.00052309, "MEAN_MOTION_DDOT": 0}, "tle": {"line1": "1 66398U 25257U   25337.15051543  .00052309  00000+0  94164-3 0  9992", "line2": "2 66398  53.1589 309.6396 0001410  99.6392 260.4777 15.49328167  4895"}}, "geometry": {"type": "Point", "coordinates": [121.41005536279742, 9.438640975933719]}}, {"type": "Feature", "properties": {"norad_id": 66399, "name": "STARLINK-35657", "group": "last-30-days", "lat": 7.888414296909781, "lon": 122.60344506925776, "alt_km": 418.02714044428376, "timestamp": "2025-12-03T08:58:44.776475+00:00", "meta": {"OBJECT_NAME": "STARLINK-35657", "OBJECT_ID": "2025-257V", "EPOCH": "2025-12-03T03:36:14.719104", "MEAN_MOTION": 15.49354115, "ECCENTRICITY": 0.0001462, "INCLINATION": 53.1588, "RA_OF_ASC_NODE": 309.6375, "ARG_OF_PERICENTER": 98.6871, "MEAN_ANOMALY": 261.4304, "EPHEMERIS_TYPE": 0, "CLASSIFICATION_TYPE": "U", "NORAD_CAT_ID": 66399, "ELEMENT_SET_NO": 999, "REV_AT_EPOCH": 489, "BSTAR": 0.0010643, "MEAN_MOTION_DOT": 0.00059291, "MEAN_MOTION_DDOT": 0}, "tle": {"line1": "1 66399U 25257V   25337.15017036  .00059291  00000+0  10643-2 0  9998", "line2": "2 66399  53.1588 309.6375 0001462  98.6871 261.4304 15.49354115  4899"}}, "geometry": {"type": "Point", "coordinates": [122.60344506925776, 7.888414296909781]}}, {"type": "Feature", "properties": {"norad_id": 66400, "name": "STARLINK-35667", "group": "last-30-days", "lat": 4.8451664180440295, "lon": 124.91443675444935, "alt_km": 418.593567487168, "timestamp": "2025-12-03T08:58:44.776486+00:00", "meta": {"OBJECT_NAME": "STARLINK-35667", "OBJECT_ID": "2025-257W", "EPOCH": "2025-12-03T03:35:15.616320", "MEAN_MOTION": 15.49341292, "ECCENTRICITY": 0.0001447, "INCLINATION": 53.1588, "RA_OF_ASC_NODE": 309.6328, "ARG_OF_PERICENTER": 93.3793, "MEAN_ANOMALY": 266.7382, "EPHEMERIS_TYPE": 0, "CLASSIFICATION_TYPE": "U", "NORAD_CAT_ID": 66400, "ELEMENT_SET_NO": 999, "REV_AT_EPOCH": 489, "BSTAR": 0.0018571, "MEAN_MOTION_DOT": 0.00104343, "MEAN_MOTION_DDOT": 0}, "tle": {"line1": "1 66400U 25257W   25337.14948630  .00104343  00000+0  18571-2 0  9990", "line2": "2 66400  53.1588 309.6328 0001447  93.3793 266.7382 15.49341292  4894"}}, "geometry": {"type": "Point", "coordinates": [124.91443675444935, 4.8451664180440295]}}, {"type": "Feature", "properties": {"norad_id": 66401, "name": "STARLINK-35668", "group": "last-30-days", "lat": 3.3160811133572685, "lon": 126.06414610560272, "alt_km": 418.80821682815076, "timestamp": "2025-12-03T08:58:44.776498+00:00", "meta": {"OBJECT_NAME": "STARLINK-35668", "OBJECT_ID": "2025-257X", "EPOCH": "2025-12-03T03:34:45.738336", "MEAN_MOTION": 15.49328937, "ECCENTRICITY": 0.0001325, "INCLINATION": 53.159, "RA_OF_ASC_NODE": 309.6301, "ARG_OF_PERICENTER": 99.8963, "MEAN_ANOMALY": 260.2195, "EPHEMERIS_TYPE": 0, "CLASSIFICATION_TYPE": "U", "NORAD_CAT_ID": 66401, "ELEMENT_SET_NO": 999, "REV_AT_EPOCH": 489, "BSTAR": 0.0015341, "MEAN_MOTION_DOT": 0.00085876, "MEAN_MOTION_DDOT": 0}, "tle": {"line1": "1 66401U 25257X   25337.14914049  .00085876  00000+0  15341-2 0  9999", "line2": "2 66401  53.1590 309.6301 0001325  99.8963 260.2195 15.49328937  4896"}}, "geometry": {"type": "Point", "coordinates": [126.06414610560272, 3.3160811133572685]}}, {"type": "Feature", "properties": {"norad_id": 66402, "name": "STARLINK-35644", "group": "last-30-days", "lat": 6.3726787904045805, "lon": 123.75837868718136, "alt_km": 418.244093432716, "timestamp": "2025-12-03T08:58:44.776509+00:00", "meta": {"OBJECT_NAME": "STARLINK-35644", "OBJECT_ID": "2025-257Y", "EPOCH": "2025-12-03T03:35:45.153024", "MEAN_MOTION": 15.49339525, "ECCENTRICITY": 0.000145, "INCLINATION": 53.159, "RA_OF_ASC_NODE": 309.6346, "ARG_OF_PERICENTER": 101.3255, "MEAN_ANOMALY": 258.7917, "EPHEMERIS_TYPE": 0, "CLASSIFICATION_TYPE": "U", "NORAD_CAT_ID": 66402, "ELEMENT_SET_NO": 999, "REV_AT_EPOCH": 489, "BSTAR": 0.0015259, "MEAN_MOTION_DOT": 0.00085442, "MEAN_MOTION_DDOT": 0}, "tle": {"line1": "1 66402U 25257Y   25337.14982816  .00085442  00000+0  15259-2 0  9994", "line2": "2 66402  53.1590 309.6346 0001450 101.3255 258.7917 15.49339525  4897"}}, "geometry": {"type": "Point", "coordinates": [123.75837868718136, 6.3726787904045805]}}, {"type": "Feature", "properties": {"norad_id": 66403, "name": "STARLINK-35602", "group": "last-30-days", "lat": 1.7876146784308633, "lon": 127.20921459937436, "alt_km": 419.0177999122043, "timestamp": "2025-12-03T08:58:44.776519+00:00", "meta": {"OBJECT_NAME": "STARLINK-35602", "OBJECT_ID": "2025-257Z", "EPOCH": "2025-12-03T05:07:09.691104", "MEAN_MOTION": 15.49340616, "ECCENTRICITY": 0.0001625, "INCLINATION": 53.1588, "RA_OF_ASC_NODE": 309.3193, "ARG_OF_PERICENTER": 98.8174, "MEAN_ANOMALY": 261.3019, "EPHEMERIS_TYPE": 0, "CLASSIFICATION_TYPE": "U", "NORAD_CAT_ID": 66403, "ELEMENT_SET_NO": 999, "REV_AT_EPOCH": 490, "BSTAR": 0.0015875, "MEAN_MOTION_DOT": 0.00088953, "MEAN_MOTION_DDOT": 0}, "tle": {"line1": "1 66403U 25257Z   25337.21330661  .00088953  00000+0  15875-2 0  9992", "line2": "2 66403  53.1588 309.3193 0001625  98.8174 261.3019 15.49340616  4904"}}, "geometry": {"type": "Point", "coordinates": [127.20921459937436, 1.7876146784308633]}}, {"type": "Feature", "properties": {"norad_id": 66404, "name": "STARLINK-35691", "group": "last-30-days", "lat": 0.2437132791126474, "lon": 128.36284711094808, "alt_km": 419.2380346163036, "timestamp": "2025-12-03T08:58:44.776530+00:00", "meta": {"OBJECT_NAME": "STARLINK-35691", "OBJECT_ID": "2025-257AA", "EPOCH": "2025-12-03T05:06:39.923712", "MEAN_MOTION": 15.49355768, "ECCENTRICITY": 0.0001391, "INCLINATION": 53.1589, "RA_OF_ASC_NODE": 309.3165, "ARG_OF_PERICENTER": 97.143, "MEAN_ANOMALY": 262.9737, "EPHEMERIS_TYPE": 0, "CLASSIFICATION_TYPE": "U", "NORAD_CAT_ID": 66404, "ELEMENT_SET_NO": 999, "REV_AT_EPOCH": 490, "BSTAR": 0.0021642, "MEAN_MOTION_DOT": 0.00122017, "MEAN_MOTION_DDOT": 0}, "tle": {"line1": "1 66404U 25257AA  25337.21296208  .00122017  00000+0  21642-2 0  9990", "line2": "2 66404  53.1589 309.3165 0001391  97.1430 262.9737 15.49355768  4900"}}, "geometry": {"type": "Point", "coordinates": [128.36284711094808, 0.2437132791126474]}}]}